{
  "type": "FeatureCollection",
  "features": [
    {
      "type": "Feature",
      "properties": {
        "norad_id": 31026,
        "name": "FENGYUN 1C DEB",
        "group": "fengyun-1c-debris",
        "lat": 73.19468277760814,
        "lon": -104.22617707012587,
        "alt_km": 951.3009279742419,
        "timestamp": "2025-12-17T07:00:47.184648+00:00",
        "meta_object_name": "FENGYUN 1C DEB",
        "meta_object_id": "1999-025BDU",
        "meta_epoch": "2025-12-16T14:07:08.116896",
        "meta_mean_motion": 13.83400412,
        "meta_eccentricity": 0.01344959,
        "meta_inclination": 98.7801,
        "meta_ra_of_asc_node": 285.8947,
        "meta_arg_of_pericenter": 172.0946,
        "meta_mean_anomaly": 1.2766,
        "meta_ephemeris_type": 0,
        "meta_classification_type": "U",
        "meta_norad_cat_id": 31026,
        "meta_element_set_no": 999,
        "meta_rev_at_epoch": 68079,
        "meta_bstar": 0.00014906948,
        "meta_mean_motion_dot": 1.36e-06,
        "meta_mean_motion_ddot": 0,
        "tle_line1": "1 31026U 99025BDU 25350.58828839  .00000136  00000+0  14907-3 0  9996",
        "tle_line2": "2 31026  98.7801 285.8947 0134495 172.0946   1.2766 13.83400412680793"
      },
      "geometry": {
        "type": "Point",
        "coordinates": [
          -104.22617707012587,
          73.19468277760814
        ]
      }
    },
    {
      "type": "Feature",
      "properties": {
        "norad_id": 31028,
        "name": "FENGYUN 1C DEB",
        "group": "fengyun-1c-debris",
        "lat": 3.1963144117251385,
        "lon": 103.33841030495876,
        "alt_km": 964.007588666198,
        "timestamp": "2025-12-17T07:00:47.184658+00:00",
        "meta_object_name": "FENGYUN 1C DEB",
        "meta_object_id": "1999-025BDW",
        "meta_epoch": "2025-12-16T00:45:35.214048",
        "meta_mean_motion": 13.89074855,
        "meta_eccentricity": 0.01643907,
        "meta_inclination": 98.7052,
        "meta_ra_of_asc_node": 281.6698,
        "meta_arg_of_pericenter": 285.3135,
        "meta_mean_anomaly": 72.9908,
        "meta_ephemeris_type": 0,
        "meta_classification_type": "U",
        "meta_norad_cat_id": 31028,
        "meta_element_set_no": 999,
        "meta_rev_at_epoch": 62049,
        "meta_bstar": 0.0002880402,
        "meta_mean_motion_dot": 3.48e-06,
        "meta_mean_motion_ddot": 0,
        "tle_line1": "1 31028U 99025BDW 25350.03165757  .00000348  00000+0  28804-3 0  9997",
        "tle_line2": "2 31028  98.7052 281.6698 0164390 285.3135  72.9908 13.89074855620493"
      },
      "geometry": {
        "type": "Point",
        "coordinates": [
          103.33841030495876,
          3.1963144117251385
        ]
      }
    },
    {
      "type": "Feature",
      "properties": {
        "norad_id": 31029,
        "name": "FENGYUN 1C DEB",
        "group": "fengyun-1c-debris",
        "lat": 57.98786471387511,
        "lon": 82.75022563635791,
        "alt_km": 739.2509908810998,
        "timestamp": "2025-12-17T07:00:47.184669+00:00",
        "meta_object_name": "FENGYUN 1C DEB",
        "meta_object_id": "1999-025BDX",
        "meta_epoch": "2025-12-15T04:56:16.350720",
        "meta_mean_motion": 14.34326953,
        "meta_eccentricity": 0.00901201,
        "meta_inclination": 98.8584,
        "meta_ra_of_asc_node": 246.167,
        "meta_arg_of_pericenter": 66.6791,
        "meta_mean_anomaly": 85.731,
        "meta_ephemeris_type": 0,
        "meta_classification_type": "U",
        "meta_norad_cat_id": 31029,
        "meta_element_set_no": 999,
        "meta_rev_at_epoch": 97831,
        "meta_bstar": 0.00033049729,
        "meta_mean_motion_dot": 9.26e-06,
        "meta_mean_motion_ddot": 0,
        "tle_line1": "1 31029U 99025BDX 25349.20574480  .00000926  00000+0  33050-3 0  9993",
        "tle_line2": "2 31029  98.8584 246.1670 0090120  66.6791  85.7310 14.34326953978314"
      },
      "geometry": {
        "type": "Point",
        "coordinates": [
          82.75022563635791,
          57.98786471387511
        ]
      }
    },
    {
      "type": "Feature",
      "properties": {
        "norad_id": 31030,
        "name": "FENGYUN 1C DEB",
        "group": "fengyun-1c-debris",
        "lat": 51.75001997078651,
        "lon": -115.51174865031565,
        "alt_km": 797.0250988368225,
        "timestamp": "2025-12-17T07:00:47.184679+00:00",
        "meta_object_name": "FENGYUN 1C DEB",
        "meta_object_id": "1999-025BDY",
        "meta_epoch": "2025-12-16T10:14:27.375072",
        "meta_mean_motion": 14.23687909,
        "meta_eccentricity": 0.00274902,
        "meta_inclination": 98.7673,
        "meta_ra_of_asc_node": 52.3368,
        "meta_arg_of_pericenter": 73.597,
        "meta_mean_anomaly": 299.9936,
        "meta_ephemeris_type": 0,
        "meta_classification_type": "U",
        "meta_norad_cat_id": 31030,
        "meta_element_set_no": 999,
        "meta_rev_at_epoch": 96757,
        "meta_bstar": 0.00069983747,
        "meta_mean_motion_dot": 1.559e-05,
        "meta_mean_motion_ddot": 0,
        "tle_line1": "1 31030U 99025BDY 25350.42670573  .00001559  00000+0  69984-3 0  9999",
        "tle_line2": "2 31030  98.7673  52.3368 0027490  73.5970 299.9936 14.23687909967579"
      },
      "geometry": {
        "type": "Point",
        "coordinates": [
          -115.51174865031565,
          51.75001997078651
        ]
      }
    },
    {
      "type": "Feature",
      "properties": {
        "norad_id": 31031,
        "name": "FENGYUN 1C DEB",
        "group": "fengyun-1c-debris",
        "lat": 79.85231666330495,
        "lon": -154.69030445815,
        "alt_km": 813.8021995434892,
        "timestamp": "2025-12-17T07:00:47.184690+00:00",
        "meta_object_name": "FENGYUN 1C DEB",
        "meta_object_id": "1999-025BDZ",
        "meta_epoch": "2025-12-15T06:19:29.672832",
        "meta_mean_motion": 14.20989204,
        "meta_eccentricity": 0.00278558,
        "meta_inclination": 99.0717,
        "meta_ra_of_asc_node": 266.4341,
        "meta_arg_of_pericenter": 179.1838,
        "meta_mean_anomaly": 334.5534,
        "meta_ephemeris_type": 0,
        "meta_classification_type": "U",
        "meta_norad_cat_id": 31031,
        "meta_element_set_no": 999,
        "meta_rev_at_epoch": 96890,
        "meta_bstar": 0.00042975182,
        "meta_mean_motion_dot": 8.88e-06,
        "meta_mean_motion_ddot": 0,
        "tle_line1": "1 31031U 99025BDZ 25349.26353788  .00000888  00000+0  42975-3 0  9991",
        "tle_line2": "2 31031  99.0717 266.4341 0027855 179.1838 334.5534 14.20989204968901"
      },
      "geometry": {
        "type": "Point",
        "coordinates": [
          -154.69030445815,
          79.85231666330495
        ]
      }
    },
    {
      "type": "Feature",
      "properties": {
        "norad_id": 31032,
        "name": "FENGYUN 1C DEB",
        "group": "fengyun-1c-debris",
        "lat": 22.275545737565558,
        "lon": -175.84927085882538,
        "alt_km": 794.8024926592316,
        "timestamp": "2025-12-17T07:00:47.184701+00:00",
        "meta_object_name": "FENGYUN 1C DEB",
        "meta_object_id": "1999-025BEA",
        "meta_epoch": "2025-12-15T19:09:17.600832",
        "meta_mean_motion": 14.02211133,
        "meta_eccentricity": 0.01391796,
        "meta_inclination": 99.3993,
        "meta_ra_of_asc_node": 358.7198,
        "meta_arg_of_pericenter": 187.6892,
        "meta_mean_anomaly": 352.2704,
        "meta_ephemeris_type": 0,
        "meta_classification_type": "U",
        "meta_norad_cat_id": 31032,
        "meta_element_set_no": 999,
        "meta_rev_at_epoch": 95024,
        "meta_bstar": 0.0010599997,
        "meta_mean_motion_dot": 1.72e-05,
        "meta_mean_motion_ddot": 0,
        "tle_line1": "1 31032U 99025BEA 25349.79812038  .00001720  00000+0  10600-2 0  9993",
        "tle_line2": "2 31032  99.3993 358.7198 0139179 187.6892 352.2704 14.02211133950246"
      },
      "geometry": {
        "type": "Point",
        "coordinates": [
          -175.84927085882538,
          22.275545737565558
        ]
      }
    },
    {
      "type": "Feature",
      "properties": {
        "norad_id": 31033,
        "name": "FENGYUN 1C DEB",
        "group": "fengyun-1c-debris",
        "lat": -80.07546060832813,
        "lon": 91.42018471402629,
        "alt_km": 915.6199781826308,
        "timestamp": "2025-12-17T07:00:47.184712+00:00",
        "meta_object_name": "FENGYUN 1C DEB",
        "meta_object_id": "1999-025BEB",
        "meta_epoch": "2025-12-16T10:17:35.091168",
        "meta_mean_motion": 14.27456248,
        "meta_eccentricity": 0.01541871,
        "meta_inclination": 98.4386,
        "meta_ra_of_asc_node": 328.6287,
        "meta_arg_of_pericenter": 99.6905,
        "meta_mean_anomaly": 50.6773,
        "meta_ephemeris_type": 0,
        "meta_classification_type": "U",
        "meta_norad_cat_id": 31033,
        "meta_element_set_no": 999,
        "meta_rev_at_epoch": 97398,
        "meta_bstar": 0.00018483415,
        "meta_mean_motion_dot": 4.72e-06,
        "meta_mean_motion_ddot": 0,
        "tle_line1": "1 31033U 99025BEB 25350.42887837  .00000472  00000+0  18483-3 0  9996",
        "tle_line2": "2 31033  98.4386 328.6287 0154187  99.6905  50.6773 14.27456248973987"
      },
      "geometry": {
        "type": "Point",
        "coordinates": [
          91.42018471402629,
          -80.07546060832813
        ]
      }
    }
  ]
}